[{"OBJECT_NAME":"YAOGAN-43 01F","OBJECT_ID":"2024-148F","EPOCH":"2026-03-10T00:23:08.877408","MEAN_MOTION":15.29824616,"ECCENTRICITY":0.00057048,"INCLINATION":34.9925,"RA_OF_ASC_NODE":59.8891,"ARG_OF_PERICENTER":18.4862,"MEAN_ANOMALY":341.6062,"EPHEMERIS_TYPE":0,"CLASSIFICATION_TYPE":"U","NORAD_CAT_ID":60463,"ELEMENT_SET_NO":999,"REV_AT_EPOCH":8707,"BSTAR":0.00058388219,"MEAN_MOTION_DOT":0.00017308,"MEAN_MOTION_DDOT":0},{"OBJECT_NAME":"STARLINK-35642","OBJECT_ID":"2025-257U","EPOCH":"2026-03-09T15:35:21.768864","MEAN_MOTION":15.30190026,"ECCENTRICITY":0.0001058,"INCLINATION":53.1586,"RA_OF_ASC_NODE":217.4734,"ARG_OF_PERICENTER":94.1495,"MEAN_ANOMALY":265.9627,"EPHEMERIS_TYPE":0,"CLASSIFICATION_TYPE":"U","NORAD_CAT_ID":66398,"ELEMENT_SET_NO":999,"REV_AT_EPOCH":1972,"BSTAR":0.0005005,"MEAN_MOTION_DOT":0.00014489,"MEAN_MOTION_DDOT":0}]
